{
  "norad_id": 59551,
  "name": "STARLINK-31699",
  "history": [
    {
      "epoch": "2026-03-28T18:26:45.741408",
      "apogee_km": 483.55698734866564,
      "perigee_km": 482.51285420576187,
      "latitude_deg": -41.19055134190223,
      "longitude_deg": -151.11584287974983,
      "semi_major_axis_km": 6861.171920777213,
      "eccentricity": 7.609e-05,
      "inclination_deg": 42.9997,
      "raan_deg": 235.6479,
      "arg_perigee_deg": 275.6408,
      "mean_anomaly_deg": 84.4357,
      "mean_motion_rev_day": 15.27584734
    }
  ]
}